CCSDS_OMM_VERS = 2.0
CREATION_DATE  = 
ORIGINATOR     = 

OBJECT_NAME    = SL-3 R/B
OBJECT_ID      = 1988-032B
CENTER_NAME    = EARTH
REF_FRAME      = TEME
TIME_SYSTEM    = UTC
MEAN_ELEMENT_THEORY = SGP/SGP4

EPOCH          = 2026-03-14T22:24:09.215136
MEAN_MOTION    = 15.19977005
ECCENTRICITY   = .00248363
INCLINATION    = 97.5193
RA_OF_ASC_NODE = 57.1659
ARG_OF_PERICENTER = 212.2131
MEAN_ANOMALY   = 147.7588

EPHEMERIS_TYPE = 0
CLASSIFICATION_TYPE = U
NORAD_CAT_ID   = 19046
ELEMENT_SET_NO = 999
REV_AT_EPOCH   = 5290
BSTAR          = .28066346E-3
MEAN_MOTION_DOT = .6019E-4
MEAN_MOTION_DDOT = 0

CCSDS_OMM_VERS = 2.0
CREATION_DATE  = 
ORIGINATOR     = 

OBJECT_NAME    = SL-16 R/B
OBJECT_ID      = 1988-039B
CENTER_NAME    = EARTH
REF_FRAME      = TEME
TIME_SYSTEM    = UTC
MEAN_ELEMENT_THEORY = SGP/SGP4

EPOCH          = 2026-03-14T16:49:52.764960
MEAN_MOTION    = 14.19616632
ECCENTRICITY   = .0023049
INCLINATION    = 71.0140
RA_OF_ASC_NODE = 57.9494
ARG_OF_PERICENTER = 327.0387
MEAN_ANOMALY   = 32.9300

EPHEMERIS_TYPE = 0
CLASSIFICATION_TYPE = U
NORAD_CAT_ID   = 19120
ELEMENT_SET_NO = 999
REV_AT_EPOCH   = 95909
BSTAR          = .10820165E-3
MEAN_MOTION_DOT = .181E-5
MEAN_MOTION_DDOT = 0

CCSDS_OMM_VERS = 2.0
CREATION_DATE  = 
ORIGINATOR     = 

OBJECT_NAME    = COSMOS 1953
OBJECT_ID      = 1988-050A
CENTER_NAME    = EARTH
REF_FRAME      = TEME
TIME_SYSTEM    = UTC
MEAN_ELEMENT_THEORY = SGP/SGP4

EPOCH          = 2026-03-14T15:59:24.236736
MEAN_MOTION    = 15.28619423
ECCENTRICITY   = .00125874
INCLINATION    = 82.5103
RA_OF_ASC_NODE = 153.2426
ARG_OF_PERICENTER = 106.8084
MEAN_ANOMALY   = 253.4538

EPHEMERIS_TYPE = 0
CLASSIFICATION_TYPE = U
NORAD_CAT_ID   = 19210
ELEMENT_SET_NO = 999
REV_AT_EPOCH   = 3854
BSTAR          = .35252549E-3
MEAN_MOTION_DOT = .9867E-4
MEAN_MOTION_DDOT = 0

CCSDS_OMM_VERS = 2.0
CREATION_DATE  = 
ORIGINATOR     = 

OBJECT_NAME    = SL-8 R/B
OBJECT_ID      = 1988-053B
CENTER_NAME    = EARTH
REF_FRAME      = TEME
TIME_SYSTEM    = UTC
MEAN_ELEMENT_THEORY = SGP/SGP4

EPOCH          = 2026-03-14T12:47:15.468288
MEAN_MOTION    = 14.38919116
ECCENTRICITY   = .00214981
INCLINATION    = 74.0454
RA_OF_ASC_NODE = 103.5385
ARG_OF_PERICENTER = 282.1836
MEAN_ANOMALY   = 188.5763

EPHEMERIS_TYPE = 0
CLASSIFICATION_TYPE = U
NORAD_CAT_ID   = 19257
ELEMENT_SET_NO = 999
REV_AT_EPOCH   = 97729
BSTAR          = .10991072E-3
MEAN_MOTION_DOT = .313E-5
MEAN_MOTION_DDOT = 0

CCSDS_OMM_VERS = 2.0
CREATION_DATE  = 
ORIGINATOR     = 

OBJECT_NAME    = COSMOS 1975
OBJECT_ID      = 1988-093A
CENTER_NAME    = EARTH
REF_FRAME      = TEME
TIME_SYSTEM    = UTC
MEAN_ELEMENT_THEORY = SGP/SGP4

EPOCH          = 2026-03-14T19:58:43.602240
MEAN_MOTION    = 15.28148892
ECCENTRICITY   = .00126111
INCLINATION    = 82.5180
RA_OF_ASC_NODE = 112.5222
ARG_OF_PERICENTER = 146.2020
MEAN_ANOMALY   = 214.0026

EPHEMERIS_TYPE = 0
CLASSIFICATION_TYPE = U
NORAD_CAT_ID   = 19573
ELEMENT_SET_NO = 999
REV_AT_EPOCH   = 2019
BSTAR          = .30155371E-3
MEAN_MOTION_DOT = .8324E-4
MEAN_MOTION_DDOT = 0

CCSDS_OMM_VERS = 2.0
CREATION_DATE  = 
ORIGINATOR     = 

OBJECT_NAME    = SL-14 R/B
OBJECT_ID      = 1988-093B
CENTER_NAME    = EARTH
REF_FRAME      = TEME
TIME_SYSTEM    = UTC
MEAN_ELEMENT_THEORY = SGP/SGP4

EPOCH          = 2026-03-14T21:56:33.711648
MEAN_MOTION    = 14.85663862
ECCENTRICITY   = .00213825
INCLINATION    = 82.5314
RA_OF_ASC_NODE = 37.1391
ARG_OF_PERICENTER = 24.9912
MEAN_ANOMALY   = 28.5771

EPHEMERIS_TYPE = 0
CLASSIFICATION_TYPE = U
NORAD_CAT_ID   = 19574
ELEMENT_SET_NO = 999
REV_AT_EPOCH   = 179
BSTAR          = .76315252E-4
MEAN_MOTION_DOT = .688E-5
MEAN_MOTION_DDOT = 0

CCSDS_OMM_VERS = 2.0
CREATION_DATE  = 
ORIGINATOR     = 

OBJECT_NAME    = SL-16 R/B
OBJECT_ID      = 1988-102B
CENTER_NAME    = EARTH
REF_FRAME      = TEME
TIME_SYSTEM    = UTC
MEAN_ELEMENT_THEORY = SGP/SGP4

EPOCH          = 2026-03-14T22:04:48.177120
MEAN_MOTION    = 14.16155252
ECCENTRICITY   = .0014282
INCLINATION    = 70.9995
RA_OF_ASC_NODE = 140.4923
ARG_OF_PERICENTER = 353.2919
MEAN_ANOMALY   = 6.8011

EPHEMERIS_TYPE = 0
CLASSIFICATION_TYPE = U
NORAD_CAT_ID   = 19650
ELEMENT_SET_NO = 999
REV_AT_EPOCH   = 92763
BSTAR          = .10946819E-3
MEAN_MOTION_DOT = .169E-5
MEAN_MOTION_DDOT = 0

CCSDS_OMM_VERS = 2.0
CREATION_DATE  = 
ORIGINATOR     = 

OBJECT_NAME    = INTERCOSMOS 24
OBJECT_ID      = 1989-080A
CENTER_NAME    = EARTH
REF_FRAME      = TEME
TIME_SYSTEM    = UTC
MEAN_ELEMENT_THEORY = SGP/SGP4

EPOCH          = 2026-03-14T19:21:32.200416
MEAN_MOTION    = 12.59566345
ECCENTRICITY   = .11866735
INCLINATION    = 82.6019
RA_OF_ASC_NODE = 101.0713
ARG_OF_PERICENTER = 280.9315
MEAN_ANOMALY   = 66.0745

EPHEMERIS_TYPE = 0
CLASSIFICATION_TYPE = U
NORAD_CAT_ID   = 20261
ELEMENT_SET_NO = 999
REV_AT_EPOCH   = 66744
BSTAR          = .22785405E-3
MEAN_MOTION_DOT = .765E-5
MEAN_MOTION_DDOT = 0

CCSDS_OMM_VERS = 2.0
CREATION_DATE  = 
ORIGINATOR     = 

OBJECT_NAME    = SL-14 R/B
OBJECT_ID      = 1989-080C
CENTER_NAME    = EARTH
REF_FRAME      = TEME
TIME_SYSTEM    = UTC
MEAN_ELEMENT_THEORY = SGP/SGP4

EPOCH          = 2026-03-14T16:15:01.166976
MEAN_MOTION    = 12.50500366
ECCENTRICITY   = .12306988
INCLINATION    = 82.5972
RA_OF_ASC_NODE = 169.9858
ARG_OF_PERICENTER = 173.3542
MEAN_ANOMALY   = 188.5732

EPHEMERIS_TYPE = 0
CLASSIFICATION_TYPE = U
NORAD_CAT_ID   = 20262
ELEMENT_SET_NO = 999
REV_AT_EPOCH   = 66077
BSTAR          = .18435565E-3
MEAN_MOTION_DOT = .631E-5
MEAN_MOTION_DDOT = 0

CCSDS_OMM_VERS = 2.0
CREATION_DATE  = 
ORIGINATOR     = 

OBJECT_NAME    = DELTA 1 R/B
OBJECT_ID      = 1989-089B
CENTER_NAME    = EARTH
REF_FRAME      = TEME
TIME_SYSTEM    = UTC
MEAN_ELEMENT_THEORY = SGP/SGP4

EPOCH          = 2026-03-14T20:42:43.397856
MEAN_MOTION    = 14.50667706
ECCENTRICITY   = .00706491
INCLINATION    = 97.0702
RA_OF_ASC_NODE = 280.4788
ARG_OF_PERICENTER = 105.9304
MEAN_ANOMALY   = 254.9694

EPHEMERIS_TYPE = 0
CLASSIFICATION_TYPE = U
NORAD_CAT_ID   = 20323
ELEMENT_SET_NO = 999
REV_AT_EPOCH   = 89648
BSTAR          = .10600517E-3
MEAN_MOTION_DOT = .395E-5
MEAN_MOTION_DDOT = 0

CCSDS_OMM_VERS = 2.0
CREATION_DATE  = 
ORIGINATOR     = 

OBJECT_NAME    = ARIANE 40 R/B
OBJECT_ID      = 1990-005H
CENTER_NAME    = EARTH
REF_FRAME      = TEME
TIME_SYSTEM    = UTC
MEAN_ELEMENT_THEORY = SGP/SGP4

EPOCH          = 2026-03-14T21:16:22.828512
MEAN_MOTION    = 14.39874319
ECCENTRICITY   = .00101691
INCLINATION    = 98.3072
RA_OF_ASC_NODE = 134.3927
ARG_OF_PERICENTER = 182.5889
MEAN_ANOMALY   = 177.5249

EPHEMERIS_TYPE = 0
CLASSIFICATION_TYPE = U
NORAD_CAT_ID   = 20443
ELEMENT_SET_NO = 999
REV_AT_EPOCH   = 89355
BSTAR          = .10962555E-3
MEAN_MOTION_DOT = .302E-5
MEAN_MOTION_DDOT = 0

CCSDS_OMM_VERS = 2.0
CREATION_DATE  = 
ORIGINATOR     = 

OBJECT_NAME    = DELTA 2 R/B(1)
OBJECT_ID      = 1990-008B
CENTER_NAME    = EARTH
REF_FRAME      = TEME
TIME_SYSTEM    = UTC
MEAN_ELEMENT_THEORY = SGP/SGP4

EPOCH          = 2026-03-14T21:23:28.613760
MEAN_MOTION    = 15.56709705
ECCENTRICITY   = .00835566
INCLINATION    = 35.6033
RA_OF_ASC_NODE = 140.6976
ARG_OF_PERICENTER = 306.7395
MEAN_ANOMALY   = 52.5691

EPHEMERIS_TYPE = 0
CLASSIFICATION_TYPE = U
NORAD_CAT_ID   = 20453
ELEMENT_SET_NO = 999
REV_AT_EPOCH   = 92694
BSTAR          = .79741782E-3
MEAN_MOTION_DOT = .69746E-3
MEAN_MOTION_DDOT = 0

